OBJECT_NAME,OBJECT_ID,EPOCH,MEAN_MOTION,ECCENTRICITY,INCLINATION,RA_OF_ASC_NODE,ARG_OF_PERICENTER,MEAN_ANOMALY,EPHEMERIS_TYPE,CLASSIFICATION_TYPE,NORAD_CAT_ID,ELEMENT_SET_NO,REV_AT_EPOCH,BSTAR,MEAN_MOTION_DOT,MEAN_MOTION_DDOT
ICEYE-X39,2024-149CG,2026-07-16T03:53:18.759552,15.00077171,.00069199,97.6790,273.7955,43.9977,316.1796,0,U,60546,999,10446,.18243618E-3,.2215E-4,0
UMBRA-10,2024-149CH,2026-07-16T04:38:47.631840,15.18867080,.00016907,97.6979,284.9427,165.4264,194.7019,0,U,60547,999,10513,.41673228E-3,.862E-4,0
ICEYE-X33,2024-149CJ,2026-07-16T05:40:36.822720,15.00890200,.00019032,97.7368,276.2322,73.9344,286.2090,0,U,60548,999,10456,.20683847E-3,.2572E-4,0
ICEYE-X40,2024-149CK,2026-07-15T03:46:08.983488,14.98070105,.00039977,97.6795,272.2031,6.4770,353.6503,0,U,60549,999,10426,.12620525E-3,.1435E-4,0
SATELIOT_1,2024-149CL,2026-07-16T05:08:58.618176,14.98164982,.00055274,97.6733,272.6295,349.7061,10.4047,0,U,60550,999,10441,.99371004E-4,.112E-4,0
BRO-14,2024-149CM,2026-07-16T03:40:27.637824,14.96237724,.00066551,97.6864,272.4099,15.2569,344.8852,0,U,60551,999,10432,.90684063E-4,.966E-5,0
SATELIOT_3,2024-149CN,2026-07-16T04:34:17.599008,14.98164460,.00049511,97.6816,273.4254,0.5766,359.5461,0,U,60552,999,10442,.32435098E-4,.327E-5,0
BRO-15,2024-149CP,2026-07-16T04:51:50.570496,14.96222051,.00076783,97.6790,272.0334,1.2178,358.9061,0,U,60553,999,10434,.30614208E-4,.288E-5,0
UM5-RIBAT,2024-149CQ,2026-07-16T03:13:53.914656,15.01220224,.00006154,97.6605,274.5423,343.3311,16.7893,0,U,60554,999,10453,.91573058E-4,.1116E-4,0
UM5-EOSAT,2024-149CR,2026-07-16T03:47:56.544576,15.01732134,.00090924,97.6777,275.5703,33.0090,327.1700,0,U,60555,999,10456,.14262625E-3,.1797E-4,0
LASARSAT,2024-247Q,2026-07-16T02:15:08.659008,15.48082110,.00074765,44.9739,99.5612,171.6523,188.4493,0,U,62391,999,8779,.39100475E-3,.20669E-3,0
CROCUBE,2024-247T,2026-07-16T02:50:28.918464,15.50241694,.00076811,44.9721,96.2522,178.5471,181.5444,0,U,62394,999,8783,.43575645E-3,.24938E-3,0
TEVEL2-4,2025-052D,2026-07-16T04:32:01.606272,15.35588389,.00034664,97.3863,93.6437,49.7684,310.3862,0,U,63213,999,7456,.30934274E-3,.10626E-3,0
TEVEL2-5,2025-052E,2026-07-16T05:06:26.018496,15.35400514,.00035022,97.3861,93.6070,51.0110,309.1445,0,U,63214,999,7456,.28732219E-3,.9803E-4,0
TEVEL2-6,2025-052F,2026-07-15T12:12:47.954304,15.35351129,.00036215,97.3871,92.8865,54.7007,305.4575,0,U,63215,999,7445,.343915E-3,.11734E-3,0
TEVEL2-1,2025-052H,2026-07-16T04:48:06.277824,15.34794260,.00041989,97.3839,93.1679,58.1893,301.9759,0,U,63217,999,7454,.28845962E-3,.9654E-4,0
TEVEL2-3,2025-052J,2026-07-16T04:38:46.320288,15.34856442,.0003915,97.3845,93.1873,60.2535,299.9097,0,U,63218,999,7454,.28883982E-3,.9686E-4,0
TEVEL2-2,2025-052K,2026-07-16T04:48:16.683840,15.34804967,.00042444,97.3834,93.1708,58.2058,301.9598,0,U,63219,999,7454,.28679822E-3,.9602E-4,0
TEVEL2-9,2025-052AD,2026-07-16T05:10:45.818976,15.32751173,.00075991,97.3902,92.4971,54.3822,305.8127,0,U,63237,999,7447,.28068593E-3,.8808E-4,0
TEVEL2-7,2025-052AE,2026-07-16T04:43:58.329696,15.32434040,.00076742,97.3901,92.3819,54.1249,306.0705,0,U,63238,999,7446,.27847655E-3,.8651E-4,0
TEVEL2-8,2025-052AF,2026-07-15T22:40:08.313888,15.32415227,.0007741,97.3903,92.1059,55.6204,304.5769,0,U,63239,999,7442,.29548E-3,.9179E-4,0
FORESAIL-1 PRIME,2025-276DS,2026-07-16T04:22:38.496864,15.18942774,.00028084,97.4192,269.9251,42.1880,317.9571,0,U,66778,999,3480,.10760166E-3,.218E-4,0
